LANDSAT 9               
1 49260U 21088A   23324.45464852  .00000417  00000+0  10267-3 0  9992
2 49260  98.2143  32.3471 0001232  90.1649 269.9691 14.57095976114143
